{"type": "FeatureCollection", "features": [ {"type": "Feature", "properties": {"norad_id": 36684, "name": "FENGYUN 1C DEB", "group": "fengyun-1c-debris", "lat": -10.870974628584992, "lon": -94.84976857889755, "alt_km": 583.3759536350481, "timestamp": "2025-12-19T10:50:01.489333+00:00", "meta": {"OBJECT_NAME": "FENGYUN 1C DEB", "OBJECT_ID": "1999-025DZE", "EPOCH": "2025-12-18T05:06:39.031200", "MEAN_MOTION": 14.96945082, "ECCENTRICITY": 0.00184785, "INCLINATION": 99.4565, "RA_OF_ASC_NODE": 85.489, "ARG_OF_PERICENTER": 90.6821, "MEAN_ANOMALY": 269.6512, "EPHEMERIS_TYPE": 0, "CLASSIFICATION_TYPE": "U", "NORAD_CAT_ID": 36684, "ELEMENT_SET_NO": 999, "REV_AT_EPOCH": 65983, "BSTAR": 0.004262867, "MEAN_MOTION_DOT": 0.00049407, "MEAN_MOTION_DDOT": 0}, "tle": {"line1": "1 36684U 99025DZE 25352.21295175  .00049407  00000+0  42629-2 0  9999", "line2": "2 36684  99.4565  85.4890 0018478  90.6821 269.6512 14.96945082659835"}}, "geometry": {"type": "Point", "coordinates": [-94.84976857889755, -10.870974628584992]}}, {"type": "Feature", "properties": {"norad_id": 36686, "name": "FENGYUN 1C DEB", "group": "fengyun-1c-debris", "lat": -39.517408283509326, "lon": -166.85742510903984, "alt_km": 621.5147737789694, "timestamp": "2025-12-19T10:50:01.489343+00:00", "meta": {"OBJECT_NAME": "FENGYUN 1C DEB", "OBJECT_ID": "1999-025DZG", "EPOCH": "2025-12-18T18:45:25.939872", "MEAN_MOTION": 14.77277529, "ECCENTRICITY": 0.01049018, "INCLINATION": 99.0004, "RA_OF_ASC_NODE": 184.8835, "ARG_OF_PERICENTER": 34.5536, "MEAN_ANOMALY": 326.243, "EPHEMERIS_TYPE": 0, "CLASSIFICATION_TYPE": "U", "NORAD_CAT_ID": 36686, "ELEMENT_SET_NO": 999, "REV_AT_EPOCH": 65941, "BSTAR": 0.00053831047, "MEAN_MOTION_DOT": 4.115e-05, "MEAN_MOTION_DDOT": 0}, "tle": {"line1": "1 36686U 99025DZG 25352.78155023  .00004115  00000+0  53831-3 0  9995", "line2": "2 36686  99.0004 184.8835 0104901  34.5536 326.2430 14.77277529659417"}}, "geometry": {"type": "Point", "coordinates": [-166.85742510903984, -39.517408283509326]}}, {"type": "Feature", "properties": {"norad_id": 36687, "name": "FENGYUN 1C DEB", "group": "fengyun-1c-debris", "lat": 15.826655014768976, "lon": -97.88916933599697, "alt_km": 869.6452767562942, "timestamp": "2025-12-19T10:50:01.489353+00:00", "meta": {"OBJECT_NAME": "FENGYUN 1C DEB", "OBJECT_ID": "1999-025DZH", "EPOCH": "2025-12-17T23:51:08.993376", "MEAN_MOTION": 14.04533718, "ECCENTRICITY": 0.00903258, "INCLINATION": 98.7154, "RA_OF_ASC_NODE": 78.2194, "ARG_OF_PERICENTER": 250.4808, "MEAN_ANOMALY": 108.6587, "EPHEMERIS_TYPE": 0, "CLASSIFICATION_TYPE": "U", "NORAD_CAT_ID": 36687, "ELEMENT_SET_NO": 999, "REV_AT_EPOCH": 62796, "BSTAR": 6.2205267e-05, "MEAN_MOTION_DOT": 6e-07, "MEAN_MOTION_DDOT": 0}, "tle": {"line1": "1 36687U 99025DZH 25351.99385409  .00000060  00000+0  62205-4 0  9992", "line2": "2 36687  98.7154  78.2194 0090325 250.4808 108.6587 14.04533718627964"}}, "geometry": {"type": "Point", "coordinates": [-97.88916933599697, 15.826655014768976]}}, {"type": "Feature", "properties": {"norad_id": 36689, "name": "FENGYUN 1C DEB", "group": "fengyun-1c-debris", "lat": -43.33352714785162, "lon": -105.35710203847917, "alt_km": 806.4550160298522, "timestamp": "2025-12-19T10:50:01.489363+00:00", "meta": {"OBJECT_NAME": "FENGYUN 1C DEB", "OBJECT_ID": "1999-025DZK", "EPOCH": "2025-11-28T10:04:14.213280", "MEAN_MOTION": 13.74189275, "ECCENTRICITY": 0.03131537, "INCLINATION": 98.4796, "RA_OF_ASC_NODE": 227.8431, "ARG_OF_PERICENTER": 334.7216, "MEAN_ANOMALY": 23.8887, "EPHEMERIS_TYPE": 0, "CLASSIFICATION_TYPE": "U", "NORAD_CAT_ID": 36689, "ELEMENT_SET_NO": 999, "REV_AT_EPOCH": 58016, "BSTAR": 0.0027905602, "MEAN_MOTION_DOT": 3.71e-05, "MEAN_MOTION_DDOT": 0}, "tle": {"line1": "1 36689U 99025DZK 25332.41960895  .00003710  00000+0  27906-2 0  9990", "line2": "2 36689  98.4796 227.8431 0313153 334.7216  23.8887 13.74189275580169"}}, "geometry": {"type": "Point", "coordinates": [-105.35710203847917, -43.33352714785162]}}, {"type": "Feature", "properties": {"norad_id": 36691, "name": "FENGYUN 1C DEB", "group": "fengyun-1c-debris", "lat": -34.04967927440186, "lon": 167.38169066367306, "alt_km": 781.6048744005757, "timestamp": "2025-12-19T10:50:01.489374+00:00", "meta": {"OBJECT_NAME": "FENGYUN 1C DEB", "OBJECT_ID": "1999-025DZM", "EPOCH": "2025-12-08T17:50:07.073952", "MEAN_MOTION": 14.07105067, "ECCENTRICITY": 0.01290803, "INCLINATION": 98.6374, "RA_OF_ASC_NODE": 343.0423, "ARG_OF_PERICENTER": 246.8073, "MEAN_ANOMALY": 111.9457, "EPHEMERIS_TYPE": 0, "CLASSIFICATION_TYPE": "U", "NORAD_CAT_ID": 36691, "ELEMENT_SET_NO": 999, "REV_AT_EPOCH": 59553, "BSTAR": 0.0032098608, "MEAN_MOTION_DOT": 5.753e-05, "MEAN_MOTION_DDOT": 0}, "tle": {"line1": "1 36691U 99025DZM 25342.74313743  .00005753  00000+0  32099-2 0  9992", "line2": "2 36691  98.6374 343.0423 0129080 246.8073 111.9457 14.07105067595539"}}, "geometry": {"type": "Point", "coordinates": [167.38169066367306, -34.04967927440186]}}, {"type": "Feature", "properties": {"norad_id": 36692, "name": "FENGYUN 1C DEB", "group": "fengyun-1c-debris", "lat": -63.610456697266955, "lon": 59.23558990101914, "alt_km": 951.8352507462641, "timestamp": "2025-12-19T10:50:01.489384+00:00", "meta": {"OBJECT_NAME": "FENGYUN 1C DEB", "OBJECT_ID": "1999-025DZN", "EPOCH": "2025-12-18T23:18:50.677632", "MEAN_MOTION": 13.93477948, "ECCENTRICITY": 0.01148015, "INCLINATION": 99.9952, "RA_OF_ASC_NODE": 259.5364, "ARG_OF_PERICENTER": 356.9978, "MEAN_ANOMALY": 3.0478, "EPHEMERIS_TYPE": 0, "CLASSIFICATION_TYPE": "U", "NORAD_CAT_ID": 36692, "ELEMENT_SET_NO": 999, "REV_AT_EPOCH": 59892, "BSTAR": 0.00051417303, "MEAN_MOTION_DOT": 6.6e-06, "MEAN_MOTION_DDOT": 0}, "tle": {"line1": "1 36692U 99025DZN 25352.97141988  .00000660  00000+0  51417-3 0  9997", "line2": "2 36692  99.9952 259.5364 0114801 356.9978   3.0478 13.93477948598927"}}, "geometry": {"type": "Point", "coordinates": [59.23558990101914, -63.610456697266955]}}, {"type": "Feature", "properties": {"norad_id": 36695, "name": "FENGYUN 1C DEB", "group": "fengyun-1c-debris", "lat": -76.34862577147032, "lon": 118.03926194803347, "alt_km": 909.5106310856299, "timestamp": "2025-12-19T10:50:01.489394+00:00", "meta": {"OBJECT_NAME": "FENGYUN 1C DEB", "OBJECT_ID": "1999-025DZR", "EPOCH": "2025-12-17T04:25:52.075200", "MEAN_MOTION": 14.43754104, "ECCENTRICITY": 0.02575669, "INCLINATION": 98.2204, "RA_OF_ASC_NODE": 332.3743, "ARG_OF_PERICENTER": 116.9061, "MEAN_ANOMALY": 245.87, "EPHEMERIS_TYPE": 0, "CLASSIFICATION_TYPE": "U", "NORAD_CAT_ID": 36695, "ELEMENT_SET_NO": 999, "REV_AT_EPOCH": 89632, "BSTAR": 0.00014097537, "MEAN_MOTION_DOT": 6.66e-06, "MEAN_MOTION_DDOT": 0}, "tle": {"line1": "1 36695U 99025DZR 25351.18463050  .00000666  00000+0  14098-3 0  9999", "line2": "2 36695  98.2204 332.3743 0257566 116.9061 245.8700 14.43754104896323"}}, "geometry": {"type": "Point", "coordinates": [118.03926194803347, -76.34862577147032]}}, {"type": "Feature", "properties": {"norad_id": 36696, "name": "FENGYUN 1C DEB", "group": "fengyun-1c-debris", "lat": 37.466087179603896, "lon": -4.203982091701699, "alt_km": 757.5837889257164, "timestamp": "2025-12-19T10:50:01.489404+00:00", "meta": {"OBJECT_NAME": "FENGYUN 1C DEB", "OBJECT_ID": "1999-025DZS", "EPOCH": "2025-12-12T23:29:27.613248", "MEAN_MOTION": 14.39206881, "ECCENTRICITY": 0.00228959, "INCLINATION": 98.9916, "RA_OF_ASC_NODE": 355.9822, "ARG_OF_PERICENTER": 328.4138, "MEAN_ANOMALY": 31.5673, "EPHEMERIS_TYPE": 0, "CLASSIFICATION_TYPE": "U", "NORAD_CAT_ID": 36696, "ELEMENT_SET_NO": 999, "REV_AT_EPOCH": 64399, "BSTAR": 0.0029501232, "MEAN_MOTION_DOT": 9.135e-05, "MEAN_MOTION_DDOT": 0}, "tle": {"line1": "1 36696U 99025DZS 25346.97879182  .00009135  00000+0  29501-2 0  9992", "line2": "2 36696  98.9916 355.9822 0022895 328.4138  31.5673 14.39206881643991"}}, "geometry": {"type": "Point", "coordinates": [-4.203982091701699, 37.466087179603896]}}, {"type": "Feature", "properties": {"norad_id": 36699, "name": "FENGYUN 1C DEB", "group": "fengyun-1c-debris", "lat": 68.99267992610518, "lon": -35.3097594052179, "alt_km": 751.5953248706383, "timestamp": "2025-12-19T10:50:01.489414+00:00", "meta": {"OBJECT_NAME": "FENGYUN 1C DEB", "OBJECT_ID": "1999-025DZV", "EPOCH": "2025-12-18T19:19:49.130400", "MEAN_MOTION": 14.24300453, "ECCENTRICITY": 0.00948184, "INCLINATION": 98.559, "RA_OF_ASC_NODE": 347.151, "ARG_OF_PERICENTER": 112.6201, "MEAN_ANOMALY": 248.5042, "EPHEMERIS_TYPE": 0, "CLASSIFICATION_TYPE": "U", "NORAD_CAT_ID": 36699, "ELEMENT_SET_NO": 999, "REV_AT_EPOCH": 73413, "BSTAR": 0.00018594934, "MEAN_MOTION_DOT": 4.08e-06, "MEAN_MOTION_DDOT": 0}, "tle": {"line1": "1 36699U 99025DZV 25352.80542975  .00000408  00000+0  18595-3 0  9997", "line2": "2 36699  98.5590 347.1510 0094818 112.6201 248.5042 14.24300453734134"}}, "geometry": {"type": "Point", "coordinates": [-35.3097594052179, 68.99267992610518]}}, {"type": "Feature", "properties": {"norad_id": 36701, "name": "FENGYUN 1C DEB", "group": "fengyun-1c-debris", "lat": -10.06967423043201, "lon": 127.66544833716955, "alt_km": 868.1185995173109, "timestamp": "2025-12-19T10:50:01.489424+00:00", "meta": {"OBJECT_NAME": "FENGYUN 1C DEB", "OBJECT_ID": "1999-025DZX", "EPOCH": "2025-12-17T03:36:27.439776", "MEAN_MOTION": 13.71349788, "ECCENTRICITY": 0.02590644, "INCLINATION": 102.7448, "RA_OF_ASC_NODE": 306.923, "ARG_OF_PERICENTER": 243.4462, "MEAN_ANOMALY": 113.9905, "EPHEMERIS_TYPE": 0, "CLASSIFICATION_TYPE": "U", "NORAD_CAT_ID": 36701, "ELEMENT_SET_NO": 999, "REV_AT_EPOCH": 61199, "BSTAR": 0.0015992707, "MEAN_MOTION_DOT": 1.752e-05, "MEAN_MOTION_DDOT": 0}, "tle": {"line1": "1 36701U 99025DZX 25351.15031759  .00001752  00000+0  15993-2 0  9992", "line2": "2 36701 102.7448 306.9230 0259064 243.4462 113.9905 13.71349788611994"}}, "geometry": {"type": "Point", "coordinates": [127.66544833716955, -10.06967423043201]}}]}